     2.10           NAVIGATION DATA                         RINEX VERSION / TYPE
SPIDER V4,0,0,3554                      2015 03 12 00:02    PGM / RUN BY / DATE 
   1.6764D-08  0.0000D+00 -1.1921D-07  5.9605D-08           ION ALPHA           
   1.2288D+05 -3.2768D+04 -1.9661D+05 -6.5536D+04           ION BETA            
   -9.313225746155D-10-8.881784197001D-15    61440     1834 DELTA-UTC: A0,A1,T,W
    16                                                      LEAP SECONDS        
                                                            END OF HEADER       
16 15 02 27 01 59 28.0-1.527718268335D-04 3.410605131648D-12 0.000000000000D+00
    1.000000000000D+01-2.143750000000D+01 4.113742679834D-09 2.441017736884D+00
   -1.085922122002D-06 8.126998669468D-03 4.900619387627D-06 5.153755329132D+03
    4.391680000000D+05-2.514570951462D-07-2.337339443775D+00 1.117587089539D-08
    9.898994290332D-01 3.026250000000D+02 2.438433533059D-01-7.946045599283D-09
   -3.214419702635D-11 1.000000000000D+00 1.833000000000D+03 0.000000000000D+00
    2.000000000000D+00 0.000000000000D+00-1.024454832077D-08 1.000000000000D+01
    4.391680000000D+05 0.000000000000D+00
18 15 02 27 02 00  0.0 3.825132735074D-04 2.842170943040D-12 0.000000000000D+00
    5.400000000000D+01-3.812500000000D+00 5.291291849119D-09 3.012352618795D+00
   -2.644956111908D-07 1.578045648057D-02 6.906688213348D-06 5.153759445190D+03
    4.392000000000D+05 1.005828380585D-07 7.234056858476D-01-1.769512891769D-07
    9.253505504161D-01 2.251250000000D+02-1.988089931651D+00-8.165340403821D-09
   -8.928943522057D-12 1.000000000000D+00 1.833000000000D+03 0.000000000000D+00
    2.000000000000D+00 0.000000000000D+00-1.117587089539D-08 5.400000000000D+01
    4.392000000000D+05 0.000000000000D+00
22 15 02 27 02 00  0.0 3.227251581848D-04 3.979039320257D-12 0.000000000000D+00
    9.000000000000D+01-1.187500000000D+00 5.452012619145D-09 2.542923872975D+00
   -9.313225746155D-08 7.542035309598D-03 6.949529051781D-06 5.153696237564D+03
    4.392000000000D+05 4.284083843231D-08 7.247470837108D-01-1.005828380585D-07
    9.231536819477D-01 2.253437500000D+02-2.067040091831D+00-8.366062509424D-09
   -7.143154557437D-12 1.000000000000D+00 1.833000000000D+03 0.000000000000D+00
    2.000000000000D+00 0.000000000000D+00-1.769512891769D-08 9.000000000000D+01
    4.392000000000D+05 0.000000000000D+00
27 15 02 27 02 00  0.0 5.426537245512D-05 2.614797267597D-12 0.000000000000D+00
    7.700000000000D+01-7.000000000000D+01 4.406254916489D-09 1.615158150140D+00
   -3.475695848465D-06 2.062285784632D-03 8.124858140945D-06 5.153693140030D+03
    4.392000000000D+05 2.980232238770D-08-1.356405363362D+00 5.587935447693D-08
    9.661275807831D-01 2.240312500000D+02 1.349382104324D-01-8.067836176906D-09
   -7.678891550400D-11 1.000000000000D+00 1.833000000000D+03 0.000000000000D+00
    2.000000000000D+00 0.000000000000D+00 1.862645149231D-09 7.700000000000D+01
    4.392000000000D+05 0.000000000000D+00
29 15 02 27 02 00  0.0 5.945814773440D-04 2.273736754432D-12 0.000000000000D+00
    9.900000000000D+01-6.090625000000D+01 4.173030809795D-09-1.916040812482D+00
   -3.296881914139D-06 1.325096585788D-03 7.748603820801D-06 5.153554689407D+03
    4.392000000000D+05-6.332993507385D-08-1.299868683720D+00 1.862645149231D-09
    9.720980786212D-01 2.336875000000D+02-8.291203784775D-01-7.934616519378D-09
   -8.071764784345D-11 1.000000000000D+00 1.833000000000D+03 0.000000000000D+00
    2.000000000000D+00 0.000000000000D+00-9.778887033463D-09 9.900000000000D+01
    4.392000000000D+05 0.000000000000D+00
31 15 02 27 01 59 12.0 3.223810344934D-04-9.094947017729D-13 0.000000000000D+00
    1.040000000000D+02 6.125000000000D+01 4.306607959137D-09-1.363715825404D+00
    2.963468432426D-06 8.266779012047D-03 6.815418601036D-06 5.153737867355D+03
    4.391520000000D+05-5.774199962616D-08 2.867809912297D+00-9.126961231232D-08
    9.762071243851D-01 2.601250000000D+02-5.425016501713D-01-8.067479129181D-09
    1.792931775269D-10 1.000000000000D+00 1.833000000000D+03 0.000000000000D+00
    2.000000000000D+00 0.000000000000D+00-1.350417733192D-08 1.040000000000D+02
    4.391520000000D+05 0.000000000000D+00
19 15 02 27 02 00  0.0-5.020443350077D-04-1.364242052659D-12 0.000000000000D+00
    5.800000000000D+01-6.403125000000D+01 4.352681326480D-09 7.214476314411D-01
   -3.086403012276D-06 1.100594422314D-02 8.536502718925D-06 5.153705099106D+03
    4.392000000000D+05-4.097819328308D-08-1.259221384928D+00 1.676380634308D-07
    9.683714996228D-01 2.161875000000D+02 5.196273767717D-01-8.117837957400D-09
   -1.410773026178D-10 1.000000000000D+00 1.833000000000D+03 0.000000000000D+00
    2.000000000000D+00 0.000000000000D+00-1.490116119385D-08 5.800000000000D+01
    4.392000000000D+05 0.000000000000D+00
 4 15 02 27 02 00  0.0-7.966533303261D-06-7.958078640513D-13 0.000000000000D+00
    9.600000000000D+01-1.150000000000D+01 5.105569744757D-09-8.569531073767D-01
   -5.569308996201D-07 1.106041716412D-02 8.495524525642D-06 5.153724002838D+03
    4.392000000000D+05 2.980232238770D-08-3.198552015616D-01 2.738088369370D-07
    9.398517068589D-01 2.040312500000D+02 1.051369428317D+00-8.421421782145D-09
    1.853648623484D-10 1.000000000000D+00 1.833000000000D+03 0.000000000000D+00
    2.800000000000D+00 0.000000000000D+00-6.519258022308D-09 9.600000000000D+01
    4.392000000000D+05 0.000000000000D+00
21 15 02 27 01 59 44.0-4.209433682263D-04-3.979039320257D-12 0.000000000000D+00
    2.500000000000D+01-1.015625000000D+01 4.929848085311D-09-2.246222268539D+00
   -6.649643182755D-07 2.228322823066D-02 8.035451173782D-06 5.153607501984D+03
    4.391840000000D+05 2.477318048477D-07-3.199588273637D-01-6.891787052155D-08
    9.338468567785D-01 2.040000000000D+02-1.941915516233D+00-7.882471564358D-09
    3.439429019370D-10 1.000000000000D+00 1.833000000000D+03 0.000000000000D+00
    2.000000000000D+00 0.000000000000D+00-1.164153218269D-08 2.500000000000D+01
    4.391840000000D+05 0.000000000000D+00
 7 15 02 27 02 00  0.0 4.435600712895D-04 3.069544618484D-12 0.000000000000D+00
    8.200000000000D+01 7.978125000000D+01 4.332680436647D-09-1.234444086248D+00
    4.058703780174D-06 8.045735303313D-03 6.681308150291D-06 5.153735094070D+03
    4.392000000000D+05 1.396983861923D-07 2.860457166071D+00-1.024454832077D-07
    9.713041880896D-01 2.535625000000D+02-2.754810269454D+00-8.042120747120D-09
    2.060800141646D-10 1.000000000000D+00 1.833000000000D+03 0.000000000000D+00
    2.000000000000D+00 0.000000000000D+00-1.117587089539D-08 8.200000000000D+01
    4.392000000000D+05 0.000000000000D+00
 4 15 02 27 01 59 44.0-7.968861609697D-06-7.958078640513D-13 0.000000000000D+00
    3.700000000000D+01-1.150000000000D+01 5.105569744757D-09-8.592869722715D-01
   -5.550682544708D-07 1.106041425373D-02 8.495524525642D-06 5.153724020004D+03
    4.391840000000D+05 2.980232238770D-08-3.198550742877D-01 2.738088369370D-07
    9.398517068589D-01 2.040312500000D+02 1.051369504389D+00-8.421421782145D-09
    1.853648623484D-10 1.000000000000D+00 1.833000000000D+03 0.000000000000D+00
    2.000000000000D+00 0.000000000000D+00-6.519258022308D-09 3.700000000000D+01
    4.391840000000D+05 0.000000000000D+00
11 15 02 27 02 00  0.0-5.606533959508D-04-2.614797267597D-12 0.000000000000D+00
    5.200000000000D+01-2.384375000000D+01 6.129540874866D-09-1.166177284719D+00
   -1.085922122002D-06 1.562521315645D-02 8.868053555489D-06 5.153727466583D+03
    4.392000000000D+05-1.024454832077D-07-6.437590449996D-01 4.246830940247D-07
    8.926273317284D-01 1.711250000000D+02 1.383633412628D+00-8.939657902829D-09
    1.496490847908D-10 1.000000000000D+00 1.833000000000D+03 0.000000000000D+00
    2.000000000000D+00 0.000000000000D+00-1.210719347000D-08 5.200000000000D+01
    4.392000000000D+05 0.000000000000D+00
 4 15 02 27 03 59 44.0-7.974449545145D-06-7.958078640513D-13 0.000000000000D+00
    3.800000000000D+01-9.531250000000D+00 5.136999714495D-09 1.908848235305D-01
   -3.948807716370D-07 1.106068154331D-02 8.430331945419D-06 5.153724630356D+03
    4.463840000000D+05-1.285225152969D-07-3.199160808975D-01 1.620501279831D-07
    9.398528801192D-01 2.057500000000D+02 1.051351974241D+00-8.468567180842D-09
    1.578637220945D-10 1.000000000000D+00 1.833000000000D+03 0.000000000000D+00
    2.000000000000D+00 0.000000000000D+00-6.519258022308D-09 3.800000000000D+01
    4.463840000000D+05 0.000000000000D+00
 7 15 02 27 04 00  0.0 4.435819573700D-04 3.069544618484D-12 0.000000000000D+00
    8.300000000000D+01 7.293750000000D+01 4.310179324563D-09-1.841939467944D-01
    3.891065716743D-06 8.046530419961D-03 6.582587957382D-06 5.153737321854D+03
    4.464000000000D+05 1.173466444016D-07 2.860399082372D+00 6.146728992462D-08
    9.713048888273D-01 2.589375000000D+02-2.754919512861D+00-8.174626309199D-09
    1.514348785259D-10 1.000000000000D+00 1.833000000000D+03 0.000000000000D+00
    2.000000000000D+00 0.000000000000D+00-1.117587089539D-08 8.300000000000D+01
    4.464000000000D+05 0.000000000000D+00
11 15 02 27 04 00  0.0-5.606720224023D-04-2.614797267597D-12 0.000000000000D+00
    5.400000000000D+01-2.493750000000D+01 6.234545324446D-09-1.160056381347D-01
   -1.152977347374D-06 1.562494167592D-02 8.724629878998D-06 5.153727251053D+03
    4.464000000000D+05-2.291053533554D-07-6.438248616840D-01 1.583248376846D-07
    8.926280997604D-01 1.755625000000D+02 1.383621887760D+00-9.113236387748D-09
    1.900079121819D-10 1.000000000000D+00 1.833000000000D+03 0.000000000000D+00
    2.000000000000D+00 0.000000000000D+00-1.210719347000D-08 5.400000000000D+01
    4.464000000000D+05 0.000000000000D+00
